TJS-2                   
1 41911U 17001A   18154.18416206 -.00000343  00000-0  00000+0 0  9992
2 41911   0.0829 102.6045 0000519  43.8747 278.9534  1.00269420  5291
HISPASAT 36W-1          
1 41942U 17006A   18153.40333941 -.00000246  00000-0  00000+0 0  9991
2 41942   0.0045 276.8515 0001039 153.2508 289.9120  1.00272155  5089
TELKOM 3S               
1 41944U 17007A   18153.97402322 -.00000364  00000-0  00000+0 0  9997
2 41944   0.0226 329.0923 0002350 109.3617 281.5724  1.00269270  4773
INTELSAT 32E (IS-32E)   
1 41945U 17007B   18153.42316878 -.00000271  00000-0  00000-0 0  9996
2 41945   0.0199 343.2008 0000575  37.2318 339.5698  1.00269010  4809
ECHOSTAR 23             
1 42070U 17014A   18153.42802594 -.00000275  00000-0  00000-0 0  9993
2 42070   0.0218 326.3603 0001975 103.9573 289.7037  1.00269808  4508
SES-10                  
1 42432U 17017A   18153.48898367 -.00000274  00000-0  00000-0 0  9996
2 42432   0.0107 343.7799 0003203  96.3791 279.8804  1.00272858  4320
CHINASAT 16 (SJ-13)     
1 42662U 17018A   18152.99729372 -.00000355  00000-0  00000-0 0  9996
2 42662   0.0977  97.5509 0003970 130.4846 131.9331  1.00271815  4285
KOREASAT 7              
1 42691U 17023A   18152.98252967 -.00000364  00000-0  00000-0 0  9994
2 42691   0.0227  57.0311 0001577   5.6652 297.3225  1.00272430  3930
SGDC                    
1 42692U 17023B   18153.51099426 -.00000251  00000-0  00000-0 0  9999
2 42692   0.0314  61.4037 0002223  13.2512 285.3728  1.00273044  3983
GSAT-9                  
1 42695U 17024A   18153.03425488 -.00000289  00000-0  00000-0 0  9992
2 42695   0.0946 276.9109 0004538 137.4117 305.7230  1.00273962  3930
INMARSAT 5-F4           
1 42698U 17025A   18153.14704612  .00000073  00000-0  00000+0 0  9996
2 42698   0.0070 285.7165 0000299 167.4056 266.8812  1.00270295  3823
SES-15                  
1 42709U 17026A   18153.66134834  .00000058  00000-0  00000-0 0  9994
2 42709   0.0179 338.4760 0000799 103.4871 278.0460  1.00270350  4707
VIASAT-2                
1 42740U 17029A   18153.49721041 -.00000267  00000-0  00000-0 0  9998
2 42740   0.0157  12.2884 0000332  90.3023 257.4161  1.00272178  3740
EUTELSAT 172B           
1 42741U 17029B   18152.82710086 -.00000008  00000-0  00000-0 0  9995
2 42741   0.0169 332.7689 0000314 149.5905 237.6465  1.00272809  4270
GSAT-19                 
1 42747U 17031A   18153.17111589  .00000123  00000-0  00000-0 0  9993
2 42747   0.0120 303.5940 0006767 123.7502 292.7307  1.00271062  3696
ECHOSTAR 21             
1 42749U 17032A   18154.15442097  .00000059  00000-0  00000+0 0  9993
2 42749   6.9015 317.3798 0002549 117.6356 242.4050  1.00273033  3689
CHINASAT 9A (ZX 9A)     
1 42763U 17035A   18151.74413927 -.00000316  00000-0  00000-0 0  9992
2 42763   0.0167 269.8424 0004668 175.2246 173.3764  1.00269584  4183
BULGARIASAT-1           
1 42801U 17038A   18154.29551917  .00000010  00000-0  00000+0 0  9992
2 42801   0.0144   1.4227 0002790  63.3448 295.2614  1.00270912  3473
HELLAS-SAT 3            
1 42814U 17040A   18153.19569658  .00000150  00000-0  00000-0 0  9994
2 42814   0.0712  50.4695 0004717 358.4666 311.1076  1.00273703  3451
GSAT-17                 
1 42815U 17040B   18153.04448743 -.00000261  00000-0  00000-0 0  9994
2 42815   0.0271  81.7093 0002587 239.1145  39.1602  1.00273225  3395
INTELSAT 35E (IS-35E)   
1 42818U 17041A   18153.39918944 -.00000240  00000-0  00000-0 0  9998
2 42818   0.0191 300.7208 0002051 133.3731 285.9287  1.00268969  3392
COSMOS 2520             
1 42907U 17046A   18153.86646775  .00000135  00000-0  00000-0 0  9996
2 42907   0.0057   4.9199 0001877 175.0627  68.2154  1.00272881  2949
TDRS 13                 
1 42915U 17047A   18153.54050603 -.00000134  00000-0  00000-0 0  9990
2 42915   6.6589 331.5236 0026306   5.3855 354.6229  1.00900906  2900
QZS-3                   
1 42917U 17048A   18152.95174814 -.00000350  00000-0  00000-0 0  9998
2 42917   0.0606 150.8655 0002164 304.4820 264.6799  1.00271648  2814
AMAZONAS 5              
1 42934U 17053A   18153.47259962 -.00000284  00000-0  00000-0 0  9995
2 42934   0.0288 320.6395 0003147  75.1328 324.2521  1.00272172  2655
ASIASAT 9               
1 42942U 17057A   18152.92039284 -.00000362  00000-0  00000+0 0  9996
2 42942   0.0300 328.0376 0002460 116.4650 259.2985  1.00272829  2485
INTELSAT 37E (IS-37E)   
1 42950U 17059A   18154.35076966 -.00000141  00000-0  00000+0 0  9999
2 42950   0.0167   3.8636 0002515  92.2647 263.9041  1.00273410  2617
BSAT-4A                 
1 42951U 17059B   18152.99942163 -.00000353  00000-0  00000-0 0  9995
2 42951   0.0487  21.4337 0004901  38.6352 299.9828  1.00274119  2377
SES-11 (ECHOSTAR 105)   
1 42967U 17063A   18153.59434919 -.00000091  00000-0  00000+0 0  9997
2 42967   0.0151 311.6051 0002541 122.9730 285.4499  1.00270420  2379
KOREASAT 5A             
1 42984U 17067A   18153.98741266 -.00000359  00000-0  00000+0 0  9996
2 42984   0.0163 298.2276 0001576 124.5932 297.1988  1.00272528  2193
ALCOMSAT 1              
1 43039U 17078A   18153.37232109 -.00000188  00000-0  00000-0 0  9995
2 43039   0.0432  91.5532 0003706 344.5086 283.9826  1.00272361  1855
